start=new Date('2022-11-08T00:00:00.000Z').valueOf();
sats=[{"FILE":"3648233","CENTER_NAME":"EARTH","PERIAPSIS":"546.300","MEAN_MOTION":"15.06387202","ARG_OF_PERICENTER":"77.3637","APOAPSIS":"548.206","ELEMENT_SET_NO":"999","GP_ID":"217104647","LAUNCH_DATE":"2020-11-25","RA_OF_ASC_NODE":"0.6029","TIME_SYSTEM":"UTC","REV_AT_EPOCH":"10836","COUNTRY_CODE":"US","EPHEMERIS_TYPE":"0","OBJECT_ID":"2020-088AE","SITE":"AFETR","MEAN_MOTION_DOT":"0.00001758","CLASSIFICATION_TYPE":"U","NORAD_CAT_ID":"47150","PERIOD":"95.593","OBJECT_NAME":"STARLINK-1863","MEAN_MOTION_DDOT":"0.0000000000000","TLE_LINE1":"1 47150U 20088AE  22311.42783508  .00001758  00000-0  13690-3 0  9994","RCS_SIZE":"LARGE","ECCENTRICITY":"0.00013760","SEMIMAJOR_AXIS":"6925.388","MEAN_ELEMENT_THEORY":"SGP4","DECAY_DATE":null,"EPOCH":"2022-11-07T10:16:04.950912","REF_FRAME":"TEME","BSTAR":"0.00013690000000","OBJECT_TYPE":"PAYLOAD","INCLINATION":"53.0564","MEAN_ANOMALY":"282.7505","TLE_LINE2":"2 47150  53.0564   0.6029 0001376  77.3637 282.7505 15.06387202108360"},{"SITE":"AFETR","PERIOD":"95.591","MEAN_MOTION_DOT":"0.00019446","CLASSIFICATION_TYPE":"U","NORAD_CAT_ID":"47151","OBJECT_NAME":"STARLINK-1864","MEAN_MOTION_DDOT":"0.0000000000000","MEAN_ELEMENT_THEORY":"SGP4","TLE_LINE1":"1 47151U 20088AF  22311.89135076  .00019446  00000-0  13200-2 0  9996","RCS_SIZE":"LARGE","SEMIMAJOR_AXIS":"6925.279","ECCENTRICITY":"0.00018050","OBJECT_TYPE":"PAYLOAD","BSTAR":"0.00132000000000","DECAY_DATE":null,"REF_FRAME":"TEME","EPOCH":"2022-11-07T21:23:32.705664","INCLINATION":"53.0548","MEAN_ANOMALY":"294.0091","TLE_LINE2":"2 47151  53.0548   8.5347 0001805  66.1087 294.0091 15.06422542108289","CENTER_NAME":"EARTH","MEAN_MOTION":"15.06422542","PERIAPSIS":"545.894","FILE":"3648233","ARG_OF_PERICENTER":"66.1087","ELEMENT_SET_NO":"999","GP_ID":"217104897","APOAPSIS":"548.394","LAUNCH_DATE":"2020-11-25","REV_AT_EPOCH":"10828","TIME_SYSTEM":"UTC","RA_OF_ASC_NODE":"8.5347","COUNTRY_CODE":"US","EPHEMERIS_TYPE":"0","OBJECT_ID":"2020-088AF"},{"PERIOD":"95.593","MEAN_MOTION_DOT":"0.00001874","CLASSIFICATION_TYPE":"U","NORAD_CAT_ID":"47152","MEAN_MOTION_DDOT":"0.0000000000000","OBJECT_NAME":"STARLINK-1866","SITE":"AFETR","INCLINATION":"53.0572","MEAN_ANOMALY":"291.1305","TLE_LINE2":"2 47152  53.0572  10.0683 0001428  68.9837 291.1305 15.06389393108239","MEAN_ELEMENT_THEORY":"SGP4","TLE_LINE1":"1 47152U 20088AG  22311.54391649  .00001874  00000-0  14472-3 0  9998","SEMIMAJOR_AXIS":"6925.381","RCS_SIZE":"LARGE","ECCENTRICITY":"0.00014280","OBJECT_TYPE":"PAYLOAD","BSTAR":"0.00014472000000","DECAY_DATE":null,"REF_FRAME":"TEME","EPOCH":"2022-11-07T13:03:14.384736","ELEMENT_SET_NO":"999","GP_ID":"217105149","APOAPSIS":"548.235","LAUNCH_DATE":"2020-11-25","CENTER_NAME":"EARTH","PERIAPSIS":"546.257","MEAN_MOTION":"15.06389393","FILE":"3648233","ARG_OF_PERICENTER":"68.9837","EPHEMERIS_TYPE":"0","OBJECT_ID":"2020-088AG","REV_AT_EPOCH":"10823","RA_OF_ASC_NODE":"10.0683","TIME_SYSTEM":"UTC","COUNTRY_CODE":"US"},{"MEAN_ANOMALY":"306.4648","INCLINATION":"53.0560","TLE_LINE2":"2 47153  53.0560  15.0410 0001573  53.6486 306.4648 15.06407346108174","TLE_LINE1":"1 47153U 20088AH  22311.60893861  .00007431  00000-0  51712-3 0  9992","RCS_SIZE":"LARGE","SEMIMAJOR_AXIS":"6925.326","ECCENTRICITY":"0.00015730","MEAN_ELEMENT_THEORY":"SGP4","EPOCH":"2022-11-07T14:36:52.295904","REF_FRAME":"TEME","DECAY_DATE":null,"OBJECT_TYPE":"PAYLOAD","BSTAR":"0.00051712000000","NORAD_CAT_ID":"47153","CLASSIFICATION_TYPE":"U","MEAN_MOTION_DOT":"0.00007431","PERIOD":"95.592","MEAN_MOTION_DDOT":"0.0000000000000","OBJECT_NAME":"STARLINK-1867","SITE":"AFETR","EPHEMERIS_TYPE":"0","OBJECT_ID":"2020-088AH","TIME_SYSTEM":"UTC","RA_OF_ASC_NODE":"15.0410","REV_AT_EPOCH":"10817","COUNTRY_CODE":"US","APOAPSIS":"548.280","GP_ID":"217105400","ELEMENT_SET_NO":"999","LAUNCH_DATE":"2020-11-25","FILE":"3648233","PERIAPSIS":"546.102","MEAN_MOTION":"15.06407346","CENTER_NAME":"EARTH","ARG_OF_PERICENTER":"53.6486"},{"REV_AT_EPOCH":"10837","RA_OF_ASC_NODE":"0.2014","TIME_SYSTEM":"UTC","COUNTRY_CODE":"US","EPHEMERIS_TYPE":"0","OBJECT_ID":"2020-088AJ","CENTER_NAME":"EARTH","MEAN_MOTION":"15.06378129","PERIAPSIS":"546.060","FILE":"3648233","ARG_OF_PERICENTER":"57.9228","ELEMENT_SET_NO":"999","GP_ID":"217104147","APOAPSIS":"548.501","LAUNCH_DATE":"2020-11-25","MEAN_ELEMENT_THEORY":"SGP4","ECCENTRICITY":"0.00017620","TLE_LINE1":"1 47154U 20088AJ  22311.51630746  .00000562  00000-0  56684-4 0  9996","RCS_SIZE":"LARGE","SEMIMAJOR_AXIS":"6925.416","OBJECT_TYPE":"PAYLOAD","BSTAR":"0.00005668400000","DECAY_DATE":null,"EPOCH":"2022-11-07T12:23:28.964544","REF_FRAME":"TEME","INCLINATION":"53.0562","MEAN_ANOMALY":"302.1932","TLE_LINE2":"2 47154  53.0562   0.2014 0001762  57.9228 302.1932 15.06378129108371","SITE":"AFETR","PERIOD":"95.594","MEAN_MOTION_DOT":"0.00000562","NORAD_CAT_ID":"47154","CLASSIFICATION_TYPE":"U","MEAN_MOTION_DDOT":"0.0000000000000","OBJECT_NAME":"STARLINK-1868"},{"COUNTRY_CODE":"US","TIME_SYSTEM":"UTC","RA_OF_ASC_NODE":"18.5790","REV_AT_EPOCH":"10814","OBJECT_ID":"2020-088AK","EPHEMERIS_TYPE":"0","ARG_OF_PERICENTER":"64.2241","FILE":"3648233","MEAN_MOTION":"15.06397838","PERIAPSIS":"546.244","CENTER_NAME":"EARTH","LAUNCH_DATE":"2020-11-25","APOAPSIS":"548.197","GP_ID":"217104397","ELEMENT_SET_NO":"999","REF_FRAME":"TEME","EPOCH":"2022-11-07T21:11:35.405088","DECAY_DATE":null,"OBJECT_TYPE":"PAYLOAD","BSTAR":"0.00030136000000","TLE_LINE1":"1 47155U 20088AK  22311.88304867  .00004210  00000-0  30136-3 0  9996","ECCENTRICITY":"0.00014100","RCS_SIZE":"LARGE","SEMIMAJOR_AXIS":"6925.355","MEAN_ELEMENT_THEORY":"SGP4","TLE_LINE2":"2 47155  53.0543  18.5790 0001410  64.2241 295.8894 15.06397838108148","MEAN_ANOMALY":"295.8894","INCLINATION":"53.0543","SITE":"AFETR","OBJECT_NAME":"STARLINK-1869","MEAN_MOTION_DDOT":"0.0000000000000","CLASSIFICATION_TYPE":"U","NORAD_CAT_ID":"47155","MEAN_MOTION_DOT":"0.00004210","PERIOD":"95.592"},{"SITE":"AFETR","MEAN_MOTION_DDOT":"0.0000000000000","OBJECT_NAME":"STARLINK-1871","PERIOD":"95.591","MEAN_MOTION_DOT":"0.00010395","CLASSIFICATION_TYPE":"U","NORAD_CAT_ID":"47157","OBJECT_TYPE":"PAYLOAD","BSTAR":"0.00071538000000","DECAY_DATE":null,"EPOCH":"2022-11-07T20:30:27.135072","REF_FRAME":"TEME","MEAN_ELEMENT_THEORY":"SGP4","RCS_SIZE":"LARGE","TLE_LINE1":"1 47157U 20088AM  22311.85448073  .00010395  00000-0  71538-3 0  9995","SEMIMAJOR_AXIS":"6925.292","ECCENTRICITY":"0.00018080","TLE_LINE2":"2 47157  53.0570   8.6988 0001808  68.7475 291.3707 15.06418612108281","INCLINATION":"53.0570","MEAN_ANOMALY":"291.3707","ARG_OF_PERICENTER":"68.7475","CENTER_NAME":"EARTH","PERIAPSIS":"545.904","MEAN_MOTION":"15.06418612","FILE":"3648233","LAUNCH_DATE":"2020-11-25","ELEMENT_SET_NO":"999","GP_ID":"217105649","APOAPSIS":"548.409","COUNTRY_CODE":"US","REV_AT_EPOCH":"10828","TIME_SYSTEM":"UTC","RA_OF_ASC_NODE":"8.6988","OBJECT_ID":"2020-088AM","EPHEMERIS_TYPE":"0"},{"PERIAPSIS":"546.140","MEAN_MOTION":"15.06391057","CENTER_NAME":"EARTH","FILE":"3648233","ARG_OF_PERICENTER":"61.6058","GP_ID":"217105900","ELEMENT_SET_NO":"999","APOAPSIS":"548.342","LAUNCH_DATE":"2020-11-25","REV_AT_EPOCH":"10835","TIME_SYSTEM":"UTC","RA_OF_ASC_NODE":"0.6869","COUNTRY_CODE":"US","EPHEMERIS_TYPE":"0","OBJECT_ID":"2020-088AN","SITE":"AFETR","PERIOD":"95.593","CLASSIFICATION_TYPE":"U","NORAD_CAT_ID":"47158","MEAN_MOTION_DOT":"0.00004399","OBJECT_NAME":"STARLINK-1873","MEAN_MOTION_DDOT":"0.0000000000000","MEAN_ELEMENT_THEORY":"SGP4","TLE_LINE1":"1 47158U 20088AN  22311.41309329  .00004399  00000-0  31409-3 0  9998","RCS_SIZE":"LARGE","ECCENTRICITY":"0.00015900","SEMIMAJOR_AXIS":"6925.376","BSTAR":"0.00031409000000","OBJECT_TYPE":"PAYLOAD","EPOCH":"2022-11-07T09:54:51.260256","REF_FRAME":"TEME","DECAY_DATE":null,"MEAN_ANOMALY":"298.5092","INCLINATION":"53.0552","TLE_LINE2":"2 47158  53.0552   0.6869 0001590  61.6058 298.5092 15.06391057108356"},{"OBJECT_NAME":"STARLINK-1876","MEAN_MOTION_DDOT":"0.0000000000000","PERIOD":"95.593","CLASSIFICATION_TYPE":"U","NORAD_CAT_ID":"47161","MEAN_MOTION_DOT":"0.00001012","SITE":"AFETR","TLE_LINE2":"2 47161  53.0571   0.5299 0001664  62.9483 297.1675 15.06388912108364","MEAN_ANOMALY":"297.1675","INCLINATION":"53.0571","OBJECT_TYPE":"PAYLOAD","BSTAR":"0.00008686300000","EPOCH":"2022-11-07T10:42:37.677888","REF_FRAME":"TEME","DECAY_DATE":null,"MEAN_ELEMENT_THEORY":"SGP4","RCS_SIZE":"LARGE","TLE_LINE1":"1 47161U 20088AR  22311.44626942  .00001012  00000-0  86863-4 0  9992","ECCENTRICITY":"0.00016640","SEMIMAJOR_AXIS":"6925.383","LAUNCH_DATE":"2020-11-25","GP_ID":"217104648","ELEMENT_SET_NO":"999","APOAPSIS":"548.400","ARG_OF_PERICENTER":"62.9483","PERIAPSIS":"546.095","MEAN_MOTION":"15.06388912","CENTER_NAME":"EARTH","FILE":"3648233","OBJECT_ID":"2020-088AR","EPHEMERIS_TYPE":"0","COUNTRY_CODE":"US","REV_AT_EPOCH":"10836","TIME_SYSTEM":"UTC","RA_OF_ASC_NODE":"0.5299"},{"SITE":"AFETR","OBJECT_NAME":"STARLINK-1877","MEAN_MOTION_DDOT":"0.0000000000000","MEAN_MOTION_DOT":"0.00011326","CLASSIFICATION_TYPE":"U","NORAD_CAT_ID":"47162","PERIOD":"95.592","DECAY_DATE":null,"REF_FRAME":"TEME","EPOCH":"2022-11-07T10:35:59.518176","OBJECT_TYPE":"PAYLOAD","BSTAR":"0.00077795000000","RCS_SIZE":"LARGE","TLE_LINE1":"1 47162U 20088AS  22311.44166109  .00011326  00000-0  77795-3 0  9999","ECCENTRICITY":"0.00015930","SEMIMAJOR_AXIS":"6925.334","MEAN_ELEMENT_THEORY":"SGP4","TLE_LINE2":"2 47162  53.0559  10.5592 0001593  71.2231 288.8931 15.06404892108226","INCLINATION":"53.0559","MEAN_ANOMALY":"288.8931","ARG_OF_PERICENTER":"71.2231","FILE":"3648233","CENTER_NAME":"EARTH","MEAN_MOTION":"15.06404892","PERIAPSIS":"546.095","LAUNCH_DATE":"2020-11-25","APOAPSIS":"548.302","ELEMENT_SET_NO":"999","GP_ID":"217104898","COUNTRY_CODE":"US","TIME_SYSTEM":"UTC","RA_OF_ASC_NODE":"10.5592","REV_AT_EPOCH":"10822","OBJECT_ID":"2020-088AS","EPHEMERIS_TYPE":"0"}];
